IRIDIUM 33 DEB          
1 36080U 97051VM  26056.50340220  .00001938  00000+0  52714-3 0  9996
2 36080  86.3236 335.4170 0014825 275.8181  84.1332 14.47006283484958
IRIDIUM 33 DEB          
1 36083U 97051VQ  26072.53673928  .00002205  00000+0  64263-3 0  9994
2 36083  86.3487 355.0624 0024158 288.8673  70.9909 14.43634998867595
IRIDIUM 33 DEB          
1 36390U 97051VU  26072.23072221  .00007022  00000+0  10350-2 0  9990
2 36390  86.2884 257.8618 0028372 213.0455 146.8992 14.74947722675956
IRIDIUM 33 DEB          
1 36483U 97051VZ  26066.59997148  .00002807  00000+0  77992-3 0  9991
2 36483  86.3819  16.1450 0007855 195.1182 164.9787 14.46178896663720
IRIDIUM 33 DEB          
1 36490U 97051WG  26073.67930581  .00015826  00000+0  21381-2 0  9999
2 36490  86.3665 328.9174 0005430  84.6982 275.4858 14.78968241878429
IRIDIUM 33 DEB          
1 36493U 97051WK  26072.98467739  .00006717  00000+0  11998-2 0  9997
2 36493  86.3596 331.1092 0012648  44.1116 316.1104 14.66769717758551
IRIDIUM 33 DEB          
1 37548U 97051XH  26069.57330673  .00004635  00000+0  11357-2 0  9992
2 37548  86.3565   5.1217 0022584 259.6882 100.1777 14.52140234668064
IRIDIUM 33 DEB          
1 37550U 97051XK  26073.49763261  .00009599  00000+0  16368-2 0  9995
2 37550  86.3808 343.1667 0004122 118.4703 241.6928 14.68903509876792
IRIDIUM 33 DEB          
1 37562U 97051XX  26073.56723531  .00006230  00000+0  13588-2 0  9992
2 37562  86.3784   3.5290 0024405 150.1120  25.8972 14.57574783876651
IRIDIUM 33 DEB          
1 37565U 97051YA  26071.97639826  .00002143  00000+0  52478-3 0  9992
2 37565  86.3522 330.2740 0014028 130.9022 229.3401 14.52030352671465
IRIDIUM 33 DEB          
1 38017U 97051YD  26072.58139905  .00007568  00000+0  17680-2 0  9997
2 38017  86.3387 126.6214 0092333 160.8345 199.6374 14.51967984627193
IRIDIUM 33 DEB          
1 38022U 97051YJ  26065.48508312  .00004504  00000+0  13485-2 0  9992
2 38022  86.2727 339.7589 0045881 129.2237 231.3050 14.42063599704003
IRIDIUM 33 DEB          
1 38028U 97051YQ  26073.41888224  .00001372  00000+0  37390-3 0  9995
2 38028  86.3247 320.4273 0027899 173.7826 186.3729 14.46519848668201
IRIDIUM 33 DEB          
1 38228U 97051ZC  26073.11101957  .00000972  00000+0  38084-3 0  9991
2 38228  86.2980   9.6159 0061733 256.7953 118.3747 14.27464423860850
IRIDIUM 33 DEB          
1 38241U 97051ZR  26073.36835300  .00002787  00000+0  63466-3 0  9997
2 38241  86.3224 310.1711 0005280  96.6475 263.5334 14.55581978615338
IRIDIUM 33 DEB          
1 38474U 97051AAB 26072.44066627  .00002285  00000+0  56753-3 0  9995
2 38474  86.3475 330.5445 0025953 140.6010 219.7089 14.51232284666333
